OBJECT B                
1 51825U 22019B   24164.87597455  .00012193  00000+0  53699-3 0  9992
2 51825  97.4284 236.2707 0013204 250.5063 109.4747 15.21900846126574
